H1 CPF 01  gfz 2022 02 23 01  5541 tandemx   
H2 1003001  6202 36605    2022 02 23 00 59 42 2022 02 28 00 00 42   120 1 1  0 0 0
H9
10 0 59633  53262.000000  0    4231314.700   4059662.185   3606235.897
10 0 59633  53382.000000  0    3980295.164   3562118.170   4340464.988
10 0 59633  53502.000000  0    3650497.121   3007392.655   4998286.102
10 0 59633  53622.000000  0    3246803.564   2406536.130   5568149.413
10 0 59633  53742.000000  0    2775584.783   1771300.833   6040064.089
10 0 59633  53862.000000  0    2244594.026   1113907.375   6405767.952
10 0 59633  53982.000000  0    1662835.958    446806.695   6658865.873
10 0 59633  54102.000000  0    1040410.946   -217555.270   6794935.483
10 0 59633  54222.000000  0     388338.104   -866969.107   6811601.291
10 0 59633  54342.000000  0    -281640.467  -1489686.824   6708573.444
10 0 59633  54462.000000  0    -957271.280  -2074634.159   6487651.888
10 0 59633  54582.000000  0   -1626012.926  -2611607.606   6152695.330
10 0 59633  54702.000000  0   -2275266.350  -3091452.350   5709557.791
10 0 59633  54822.000000  0   -2892612.070  -3506221.254   5165994.450
10 0 59633  54942.000000  0   -3466051.942  -3849311.353   4531532.615
10 0 59633  55062.000000  0   -3984246.861  -4115572.948   3817308.239
10 0 59633  55182.000000  0   -4436744.790  -4301390.335   3035873.049
10 0 59633  55302.000000  0   -4814195.819  -4404732.772   2200975.324
10 0 59633  55422.000000  0   -5108550.120  -4425174.266   1327315.630
10 0 59633  55542.000000  0   -5313231.977  -4363879.616    430282.289
10 0 59633  55662.000000  0   -5423285.959  -4223557.972   -474327.113
10 0 59633  55782.000000  0   -5435491.329  -4008384.897  -1370593.016
10 0 59633  55902.000000  0   -5348440.890  -3723894.049  -2242764.086
10 0 59633  56022.000000  0   -5162581.581  -3376841.385  -3075541.379
10 0 59633  56142.000000  0   -4880217.946  -2975047.489  -3854350.521
10 0 59633  56262.000000  0   -4505479.372  -2527221.648  -4565597.225
10 0 59633  56382.000000  0   -4044251.653  -2042772.270  -5196901.697
10 0 59633  56502.000000  0   -3504075.426  -1531608.538  -5737307.554
10 0 59633  56622.000000  0   -2894014.753  -1003937.417  -6177462.520
10 0 59633  56742.000000  0   -2224498.973   -470060.872  -6509769.129
10 0 59633  56862.000000  0   -1507140.406     59822.514  -6728504.157
10 0 59633  56982.000000  0    -754532.965    575807.611  -6829905.396
10 0 59633  57102.000000  0      19964.672   1068462.710  -6812229.257
10 0 59633  57222.000000  0     802459.917   1528997.159  -6675777.069
10 0 59633  57342.000000  0    1578768.931   1949414.011  -6422893.038
10 0 59633  57462.000000  0    2334668.729   2322647.298  -6057928.439
10 0 59633  57582.000000  0    3056153.631   2642680.231  -5587174.607
10 0 59633  57702.000000  0    3729691.405   2904642.586  -5018764.106
10 0 59633  57822.000000  0    4342477.553   3104887.109  -4362543.007
10 0 59633  57942.000000  0    4882683.161   3241042.678  -3629911.001
10 0 59633  58062.000000  0    5339689.284   3312041.884  -2833631.346
10 0 59633  58182.000000  0    5704303.073   3318123.836  -1987614.945
10 0 59633  58302.000000  0    5968951.912   3260810.447  -1106678.829
10 0 59633  58422.000000  0    6127847.805   3142855.337   -206284.617
10 0 59633  58542.000000  0    6177118.947   2968167.230    697738.002
10 0 59633  58662.000000  0    6114903.839   2741708.237   1589476.938
10 0 59633  58782.000000  0    5941404.972   2469372.363   2453225.969
10 0 59633  58902.000000  0    5658901.642   2157844.804   3273770.687
10 0 59633  59022.000000  0    5271719.289   1814445.573   4036664.412
10 0 59633  59142.000000  0    4786157.339   1446962.578   4728487.731
10 0 59633  59262.000000  0    4210378.807   1063478.172   5337084.846
10 0 59633  59382.000000  0    3554265.558    672193.438   5851777.583
10 0 59633  59502.000000  0    2829238.026    281254.067   6263549.088
10 0 59633  59622.000000  0    2048049.689   -101416.759   6565194.321
10 0 59633  59742.000000  0    1224559.243   -468276.778   6751440.787
10 0 59633  59862.000000  0     373481.623   -812312.240   6819036.724
10 0 59633  59982.000000  0    -489876.634  -1127171.106   6766803.396
10 0 59633  60102.000000  0   -1349892.254  -1407280.083   6595653.656
10 0 59633  60222.000000  0   -2190906.828  -1647943.356   6308575.714
10 0 59633  60342.000000  0   -2997509.699  -1845420.571   5910584.190
10 0 59633  60462.000000  0   -3754821.615  -1996985.344   5408640.860
10 0 59633  60582.000000  0   -4448774.699  -2100963.273   4811538.803
10 0 59633  60702.000000  0   -5066379.903  -2156747.252   4129752.913
10 0 59633  60822.000000  0   -5595977.276  -2164789.122   3375259.054
10 0 59633  60942.000000  0   -6027463.848  -2126568.284   2561325.873
10 0 59633  61062.000000  0   -6352495.619  -2044539.244   1702281.873
10 0 59633  61182.000000  0   -6564658.634  -1922058.091    813258.271
10 0 59633  61302.000000  0   -6659600.088  -1763288.556    -90085.323
10 0 59633  61422.000000  0   -6635119.625  -1573090.600   -991845.246
10 0 59633  61542.000000  0   -6491216.280  -1356894.650  -1876163.313
10 0 59633  61662.000000  0   -6230090.717  -1120565.185  -2727513.478
10 0 59633  61782.000000  0   -5856103.716   -870257.442  -3530979.927
10 0 59633  61902.000000  0   -5375692.431   -612269.926  -4272521.074
10 0 59633  62022.000000  0   -4797247.161   -352896.535  -4939213.858
10 0 59633  62142.000000  0   -4130952.168    -98282.749  -5519473.979
10 0 59633  62262.000000  0   -3388594.717    145710.984  -6003248.947
10 0 59633  62382.000000  0   -2583347.917    373636.147  -6382180.309
10 0 59633  62502.000000  0   -1729533.405    580570.281  -6649735.893
10 0 59633  62622.000000  0    -842366.219    762216.561  -6801311.828
10 0 59633  62742.000000  0      62312.725    914988.666  -6834302.118
10 0 59633  62862.000000  0     968311.764   1036078.255  -6748137.875
10 0 59633  62982.000000  0    1859370.978   1123504.729  -6544298.884
10 0 59633  63102.000000  0    2719448.428   1176147.609  -6226291.255
10 0 59633  63222.000000  0    3533004.282   1193759.942  -5799592.989
10 0 59633  63342.000000  0    4285277.948   1176962.451  -5271568.384
10 0 59633  63462.000000  0    4962556.636   1127218.891  -4651353.213
10 0 59633  63582.000000  0    5552430.789   1046793.122  -3949707.797
10 0 59633  63702.000000  0    6044029.414    938687.888  -3178839.813
10 0 59633  63822.000000  0    6428231.041    806566.372  -2352199.664
10 0 59633  63942.000000  0    6697846.182    654658.503  -1484249.900
10 0 59633  64062.000000  0    6847764.541    487653.123   -590211.103
10 0 59633  64182.000000  0    6875061.544    310578.893    314209.122
10 0 59633  64302.000000  0    6779063.035    128677.625   1213098.082
10 0 59633  64422.000000  0    6561365.663    -52728.635   2090626.474
10 0 59633  64542.000000  0    6225810.517   -228371.771   2931336.953
10 0 59633  64662.000000  0    5778410.637   -393170.518   3720424.630
10 0 59633  64782.000000  0    5227235.334   -542357.401   4444002.811
10 0 59633  64902.000000  0    4582256.757   -671597.548   5089351.021
10 0 59633  65022.000000  0    3855158.105   -777096.845   5645139.260
10 0 59633  65142.000000  0    3059111.934   -855695.037   6101623.217
10 0 59633  65262.000000  0    2208533.785   -904943.864   6450810.323
10 0 59633  65382.000000  0    1318816.142   -923168.112   6686594.189
10 0 59633  65502.000000  0     406045.568   -909508.680   6804856.611
10 0 59633  65622.000000  0    -513290.082   -863946.237   6803533.876
10 0 59633  65742.000000  0   -1422598.796   -787306.031   6682649.425
10 0 59633  65862.000000  0   -2305482.478   -681242.972   6444313.081
10 0 59633  65982.000000  0   -3146031.198   -548207.425   6092686.786
10 0 59633  66102.000000  0   -3929110.902   -391392.178   5633917.804
10 0 59633  66222.000000  0   -4640640.288   -214661.895   5076037.853
10 0 59633  66342.000000  0   -5267850.814    -22465.898   4428827.961
10 0 59633  66462.000000  0   -5799524.143    180263.907   3703651.091
10 0 59633  66582.000000  0   -6226201.672    388228.297   2913255.110
10 0 59633  66702.000000  0   -6540363.019    595886.806   2071549.542
10 0 59633  66822.000000  0   -6736568.106    797591.568   1193357.766
10 0 59633  66942.000000  0   -6811559.061    987725.097    294150.015
10 0 59633  67062.000000  0   -6764318.175   1160839.221   -610237.836
10 0 59633  67182.000000  0   -6596079.446   1311791.173  -1503892.600
10 0 59633  67302.000000  0   -6310295.053   1435872.861  -2371111.308
10 0 59633  67422.000000  0   -5912559.523   1528932.081  -3196684.280
10 0 59633  67542.000000  0   -5410489.231   1587480.351  -3966167.694
10 0 59633  67662.000000  0   -4813563.493   1608784.912  -4666136.294
10 0 59633  67782.000000  0   -4132933.070   1590944.020  -5284413.551
10 0 59633  67902.000000  0   -3381201.028   1532943.555  -5810275.306
10 0 59633  68022.000000  0   -2572182.291   1434694.160  -6234625.589
10 0 59633  68142.000000  0   -1720645.613   1297048.285  -6550143.204
10 0 59633  68262.000000  0    -842042.490   1121797.887  -6751395.941
10 0 59633  68382.000000  0      47769.506    911651.849  -6834923.054
10 0 59633  68502.000000  0     932805.357    670195.082  -6799287.941
10 0 59633  68622.000000  0    1797232.838    401828.618  -6645102.699
10 0 59633  68742.000000  0    2625650.077    111691.309  -6375018.288
10 0 59633  68862.000000  0    3403354.628   -194434.815  -5993684.179
10 0 59633  68982.000000  0    4116601.563   -510235.346  -5507675.646
10 0 59633  69102.000000  0    4752845.632   -828988.153  -4925391.596
10 0 59633  69222.000000  0    5300967.263  -1143700.915  -4256921.908
10 0 59633  69342.000000  0    5751475.043  -1447258.487  -3513882.788
10 0 59633  69462.000000  0    6096680.561  -1732577.379  -2709223.303
10 0 59633  69582.000000  0    6330841.611  -1992764.413  -1857004.955
10 0 59633  69702.000000  0    6450269.352  -2221275.619   -972157.260
99
